[{"OBJECT_NAME":"STARLINK-1652","OBJECT_ID":"2020-062AU","EPOCH":"2020-11-03T04:00:05.999904","MEAN_MOTION":15.05602202,"ECCENTRICITY":0.0001553,"INCLINATION":53.0003,"RA_OF_ASC_NODE":141.8353,"ARG_OF_PERICENTER":72.8087,"MEAN_ANOMALY":269.2532,"EPHEMERIS_TYPE":0,"CLASSIFICATION_TYPE":"U","NORAD_CAT_ID":46367,"ELEMENT_SET_NO":999,"REV_AT_EPOCH":1020,"BSTAR":-0.0025004,"MEAN_MOTION_DOT":-0.00036545,"MEAN_MOTION_DDOT":0},{"OBJECT_NAME":"STARLINK-1658","OBJECT_ID":"2020-062AV","EPOCH":"2020-11-02T22:00:00.999936","MEAN_MOTION":15.62752019,"ECCENTRICITY":0.0001428,"INCLINATION":52.9996,"RA_OF_ASC_NODE":133.5353,"ARG_OF_PERICENTER":51.2389,"MEAN_ANOMALY":91.0433,"EPHEMERIS_TYPE":0,"CLASSIFICATION_TYPE":"U","NORAD_CAT_ID":46368,"ELEMENT_SET_NO":999,"REV_AT_EPOCH":208,"BSTAR":2.2941e-6,"MEAN_MOTION_DOT":-3.24e-6,"MEAN_MOTION_DDOT":0},{"OBJECT_NAME":"STARLINK-1662","OBJECT_ID":"2020-062AW","EPOCH":"2020-11-02T22:00:00.999936","MEAN_MOTION":15.62767474,"ECCENTRICITY":0.0002462,"INCLINATION":52.9984,"RA_OF_ASC_NODE":133.5398,"ARG_OF_PERICENTER":21.8665,"MEAN_ANOMALY":123.0669,"EPHEMERIS_TYPE":0,"CLASSIFICATION_TYPE":"U","NORAD_CAT_ID":46369,"ELEMENT_SET_NO":999,"REV_AT_EPOCH":182,"BSTAR":-0.00028303,"MEAN_MOTION_DOT":-0.00026385,"MEAN_MOTION_DDOT":0},{"OBJECT_NAME":"STARLINK-1670","OBJECT_ID":"2020-062AX","EPOCH":"2020-11-02T22:00:00.999936","MEAN_MOTION":15.62706435,"ECCENTRICITY":0.0002342,"INCLINATION":52.9988,"RA_OF_ASC_NODE":132.8267,"ARG_OF_PERICENTER":20.5806,"MEAN_ANOMALY":109.4574,"EPHEMERIS_TYPE":0,"CLASSIFICATION_TYPE":"U","NORAD_CAT_ID":46370,"ELEMENT_SET_NO":999,"REV_AT_EPOCH":182,"BSTAR":0.00056863,"MEAN_MOTION_DOT":0.00051772,"MEAN_MOTION_DDOT":0},{"OBJECT_NAME":"STARLINK-1688","OBJECT_ID":"2020-062AY","EPOCH":"2020-11-02T22:00:00.999936","MEAN_MOTION":15.62725437,"ECCENTRICITY":0.0002134,"INCLINATION":52.9985,"RA_OF_ASC_NODE":132.8104,"ARG_OF_PERICENTER":26.4601,"MEAN_ANOMALY":108.7016,"EPHEMERIS_TYPE":0,"CLASSIFICATION_TYPE":"U","NORAD_CAT_ID":46371,"ELEMENT_SET_NO":999,"REV_AT_EPOCH":182,"BSTAR":0.00056957,"MEAN_MOTION_DOT":0.00051897,"MEAN_MOTION_DDOT":0},{"OBJECT_NAME":"STARLINK-1689","OBJECT_ID":"2020-062AZ","EPOCH":"2020-11-03T04:00:05.999904","MEAN_MOTION":15.0558292,"ECCENTRICITY":0.0001388,"INCLINATION":53.005,"RA_OF_ASC_NODE":141.8129,"ARG_OF_PERICENTER":97.8388,"MEAN_ANOMALY":352.2131,"EPHEMERIS_TYPE":0,"CLASSIFICATION_TYPE":"U","NORAD_CAT_ID":46372,"ELEMENT_SET_NO":999,"REV_AT_EPOCH":1020,"BSTAR":-1.5208e-5,"MEAN_MOTION_DOT":-5.01e-6,"MEAN_MOTION_DDOT":0},{"OBJECT_NAME":"STARLINK-1691","OBJECT_ID":"2020-062BA","EPOCH":"2020-11-02T22:00:00.999936","MEAN_MOTION":15.62752009,"ECCENTRICITY":0.0002109,"INCLINATION":53.0005,"RA_OF_ASC_NODE":132.7961,"ARG_OF_PERICENTER":27.1772,"MEAN_ANOMALY":112.9856,"EPHEMERIS_TYPE":0,"CLASSIFICATION_TYPE":"U","NORAD_CAT_ID":46373,"ELEMENT_SET_NO":999,"REV_AT_EPOCH":208,"BSTAR":4.4177e-6,"MEAN_MOTION_DOT":-1.31e-6,"MEAN_MOTION_DDOT":0},{"OBJECT_NAME":"STARLINK-1711","OBJECT_ID":"2020-062BB","EPOCH":"2020-11-02T22:00:00.999936","MEAN_MOTION":15.62707546,"ECCENTRICITY":0.0002123,"INCLINATION":52.9975,"RA_OF_ASC_NODE":133.5134,"ARG_OF_PERICENTER":25.2006,"MEAN_ANOMALY":129.8613,"EPHEMERIS_TYPE":0,"CLASSIFICATION_TYPE":"U","NORAD_CAT_ID":46374,"ELEMENT_SET_NO":999,"REV_AT_EPOCH":182,"BSTAR":0.0005857,"MEAN_MOTION_DOT":0.00053355,"MEAN_MOTION_DDOT":0},{"OBJECT_NAME":"STARLINK-1724","OBJECT_ID":"2020-062BC","EPOCH":"2020-11-03T08:00:01.000224","MEAN_MOTION":15.62700345,"ECCENTRICITY":0.0002197,"INCLINATION":52.9981,"RA_OF_ASC_NODE":131.44,"ARG_OF_PERICENTER":23.9555,"MEAN_ANOMALY":331.9371,"EPHEMERIS_TYPE":0,"CLASSIFICATION_TYPE":"U","NORAD_CAT_ID":46375,"ELEMENT_SET_NO":999,"REV_AT_EPOCH":1036,"BSTAR":0.00058177,"MEAN_MOTION_DOT":0.00052976,"MEAN_MOTION_DDOT":0},{"OBJECT_NAME":"STARLINK-1742","OBJECT_ID":"2020-062BD","EPOCH":"2020-11-03T08:00:01.000224","MEAN_MOTION":15.6269479,"ECCENTRICITY":0.0002021,"INCLINATION":52.9982,"RA_OF_ASC_NODE":131.4466,"ARG_OF_PERICENTER":36.9932,"MEAN_ANOMALY":313.8243,"EPHEMERIS_TYPE":0,"CLASSIFICATION_TYPE":"U","NORAD_CAT_ID":46376,"ELEMENT_SET_NO":999,"REV_AT_EPOCH":1036,"BSTAR":0.00019221,"MEAN_MOTION_DOT":0.00017062,"MEAN_MOTION_DDOT":0},{"OBJECT_NAME":"STARLINK-1745","OBJECT_ID":"2020-062BE","EPOCH":"2020-11-03T08:00:01.000224","MEAN_MOTION":15.62756981,"ECCENTRICITY":0.0002189,"INCLINATION":52.9983,"RA_OF_ASC_NODE":130.7338,"ARG_OF_PERICENTER":25.244,"MEAN_ANOMALY":312.8272,"EPHEMERIS_TYPE":0,"CLASSIFICATION_TYPE":"U","NORAD_CAT_ID":46377,"ELEMENT_SET_NO":999,"REV_AT_EPOCH":1036,"BSTAR":-0.00063093,"MEAN_MOTION_DOT":-0.0005791,"MEAN_MOTION_DDOT":0},{"OBJECT_NAME":"STARLINK-1751","OBJECT_ID":"2020-062BF","EPOCH":"2020-11-03T08:00:01.000224","MEAN_MOTION":15.62777379,"ECCENTRICITY":0.0001438,"INCLINATION":52.9996,"RA_OF_ASC_NODE":130.7138,"ARG_OF_PERICENTER":37.3625,"MEAN_ANOMALY":308.3332,"EPHEMERIS_TYPE":0,"CLASSIFICATION_TYPE":"U","NORAD_CAT_ID":46378,"ELEMENT_SET_NO":999,"REV_AT_EPOCH":1036,"BSTAR":-0.00074316,"MEAN_MOTION_DOT":-0.00068079,"MEAN_MOTION_DDOT":0},{"OBJECT_NAME":"STARLINK-1756","OBJECT_ID":"2020-062BG","EPOCH":"2020-11-02T22:00:00.999936","MEAN_MOTION":15.62697705,"ECCENTRICITY":0.0003151,"INCLINATION":52.9984,"RA_OF_ASC_NODE":133.5112,"ARG_OF_PERICENTER":15.118,"MEAN_ANOMALY":134.8457,"EPHEMERIS_TYPE":0,"CLASSIFICATION_TYPE":"U","NORAD_CAT_ID":46379,"ELEMENT_SET_NO":999,"REV_AT_EPOCH":182,"BSTAR":0.00059909,"MEAN_MOTION_DOT":0.00054579,"MEAN_MOTION_DDOT":0},{"OBJECT_NAME":"STARLINK-1758","OBJECT_ID":"2020-062BH","EPOCH":"2020-11-03T10:00:00.999936","MEAN_MOTION":15.62720386,"ECCENTRICITY":0.0001936,"INCLINATION":52.9978,"RA_OF_ASC_NODE":131.0717,"ARG_OF_PERICENTER":36.2128,"MEAN_ANOMALY":45.8885,"EPHEMERIS_TYPE":0,"CLASSIFICATION_TYPE":"U","NORAD_CAT_ID":46380,"ELEMENT_SET_NO":999,"REV_AT_EPOCH":1037,"BSTAR":0.0005381,"MEAN_MOTION_DOT":0.00048972,"MEAN_MOTION_DDOT":0},{"OBJECT_NAME":"STARLINK-1768","OBJECT_ID":"2020-062BJ","EPOCH":"2020-11-03T08:00:01.000224","MEAN_MOTION":15.62766336,"ECCENTRICITY":0.0001931,"INCLINATION":52.9986,"RA_OF_ASC_NODE":131.4416,"ARG_OF_PERICENTER":31.4384,"MEAN_ANOMALY":326.9558,"EPHEMERIS_TYPE":0,"CLASSIFICATION_TYPE":"U","NORAD_CAT_ID":46381,"ELEMENT_SET_NO":999,"REV_AT_EPOCH":1036,"BSTAR":-0.00067675,"MEAN_MOTION_DOT":-0.00062066,"MEAN_MOTION_DDOT":0},{"OBJECT_NAME":"STARLINK-1769","OBJECT_ID":"2020-062BK","EPOCH":"2020-11-03T04:00:05.999904","MEAN_MOTION":15.62746178,"ECCENTRICITY":0.0001939,"INCLINATION":52.9984,"RA_OF_ASC_NODE":131.5418,"ARG_OF_PERICENTER":27.0686,"MEAN_ANOMALY":98.2512,"EPHEMERIS_TYPE":0,"CLASSIFICATION_TYPE":"U","NORAD_CAT_ID":46382,"ELEMENT_SET_NO":999,"REV_AT_EPOCH":1034,"BSTAR":-0.00021459,"MEAN_MOTION_DOT":-0.00020131,"MEAN_MOTION_DDOT":0},{"OBJECT_NAME":"STARLINK-1770","OBJECT_ID":"2020-062BL","EPOCH":"2020-11-02T22:00:00.999936","MEAN_MOTION":15.055817,"ECCENTRICITY":0.0001397,"INCLINATION":52.9937,"RA_OF_ASC_NODE":142.9833,"ARG_OF_PERICENTER":98.2954,"MEAN_ANOMALY":201.664,"EPHEMERIS_TYPE":0,"CLASSIFICATION_TYPE":"U","NORAD_CAT_ID":46383,"ELEMENT_SET_NO":999,"REV_AT_EPOCH":205,"BSTAR":1.7404e-5,"MEAN_MOTION_DOT":-2.6e-7,"MEAN_MOTION_DDOT":0},{"OBJECT_NAME":"STARLINK-1771","OBJECT_ID":"2020-062BM","EPOCH":"2020-11-02T22:00:00.999936","MEAN_MOTION":15.05581905,"ECCENTRICITY":0.0001408,"INCLINATION":52.9962,"RA_OF_ASC_NODE":142.9805,"ARG_OF_PERICENTER":101.2336,"MEAN_ANOMALY":180.7258,"EPHEMERIS_TYPE":0,"CLASSIFICATION_TYPE":"U","NORAD_CAT_ID":46384,"ELEMENT_SET_NO":999,"REV_AT_EPOCH":205,"BSTAR":1.7422e-5,"MEAN_MOTION_DOT":-2.5e-7,"MEAN_MOTION_DDOT":0},{"OBJECT_NAME":"STARLINK-1644","OBJECT_ID":"2020-070A","EPOCH":"2020-11-03T12:00:00.999648","MEAN_MOTION":15.58956734,"ECCENTRICITY":0.0001197,"INCLINATION":53.0007,"RA_OF_ASC_NODE":304.4545,"ARG_OF_PERICENTER":84.5441,"MEAN_ANOMALY":163.2574,"EPHEMERIS_TYPE":0,"CLASSIFICATION_TYPE":"U","NORAD_CAT_ID":46532,"ELEMENT_SET_NO":999,"REV_AT_EPOCH":522,"BSTAR":-0.015274,"MEAN_MOTION_DOT":-0.01096306,"MEAN_MOTION_DDOT":0},{"OBJECT_NAME":"STARLINK-1648","OBJECT_ID":"2020-070B","EPOCH":"2020-11-03T12:00:00.999648","MEAN_MOTION":15.58089562,"ECCENTRICITY":0.0001159,"INCLINATION":53.0011,"RA_OF_ASC_NODE":304.4307,"ARG_OF_PERICENTER":82.9178,"MEAN_ANOMALY":180.8587,"EPHEMERIS_TYPE":0,"CLASSIFICATION_TYPE":"U","NORAD_CAT_ID":46533,"ELEMENT_SET_NO":999,"REV_AT_EPOCH":522,"BSTAR":-0.015769,"MEAN_MOTION_DOT":-0.01095178,"MEAN_MOTION_DDOT":0},{"OBJECT_NAME":"STARLINK-1659","OBJECT_ID":"2020-070C","EPOCH":"2020-11-03T12:00:00.999648","MEAN_MOTION":15.59337502,"ECCENTRICITY":0.0001164,"INCLINATION":53.0019,"RA_OF_ASC_NODE":304.4539,"ARG_OF_PERICENTER":89.6488,"MEAN_ANOMALY":163.041,"EPHEMERIS_TYPE":0,"CLASSIFICATION_TYPE":"U","NORAD_CAT_ID":46534,"ELEMENT_SET_NO":999,"REV_AT_EPOCH":522,"BSTAR":-0.015069,"MEAN_MOTION_DOT":-0.01097349,"MEAN_MOTION_DDOT":0},{"OBJECT_NAME":"STARLINK-1663","OBJECT_ID":"2020-070D","EPOCH":"2020-11-03T12:00:00.999648","MEAN_MOTION":15.55785256,"ECCENTRICITY":0.0001218,"INCLINATION":53,"RA_OF_ASC_NODE":304.4466,"ARG_OF_PERICENTER":87.1875,"MEAN_ANOMALY":140.9327,"EPHEMERIS_TYPE":0,"CLASSIFICATION_TYPE":"U","NORAD_CAT_ID":46535,"ELEMENT_SET_NO":999,"REV_AT_EPOCH":522,"BSTAR":-0.017132,"MEAN_MOTION_DOT":-0.01091483,"MEAN_MOTION_DDOT":0},{"OBJECT_NAME":"STARLINK-1668","OBJECT_ID":"2020-070E","EPOCH":"2020-11-03T12:00:00.999648","MEAN_MOTION":15.55981524,"ECCENTRICITY":0.0001225,"INCLINATION":53.0005,"RA_OF_ASC_NODE":304.4473,"ARG_OF_PERICENTER":86.5416,"MEAN_ANOMALY":144.7324,"EPHEMERIS_TYPE":0,"CLASSIFICATION_TYPE":"U","NORAD_CAT_ID":46536,"ELEMENT_SET_NO":999,"REV_AT_EPOCH":522,"BSTAR":-0.017009,"MEAN_MOTION_DOT":-0.01091597,"MEAN_MOTION_DDOT":0}]
